XRISM                   
1 57800U 23137A   23329.92141910  .00011865  00000+0  95565-3 0  9995
2 57800  31.0032 230.2104 0010303 344.2639  15.7675 14.98725813 11912
